{"type": "FeatureCollection", "features": [{"type": "Feature", "properties": {"norad_id": 28890, "name": "BEIJING 1", "group": "dmc", "lat": -12.666234971028908, "lon": -62.14545593646301, "alt_km": 682.6180083106574, "timestamp": "2025-12-18T04:58:34.247157+00:00", "meta": {"OBJECT_NAME": "BEIJING 1", "OBJECT_ID": "2005-043A", "EPOCH": "2025-12-17T23:10:36.283008", "MEAN_MOTION": 14.63370867, "ECCENTRICITY": 0.00155185, "INCLINATION": 98.2647, "RA_OF_ASC_NODE": 119.4844, "ARG_OF_PERICENTER": 125.7262, "MEAN_ANOMALY": 234.5386, "EPHEMERIS_TYPE": 0, "CLASSIFICATION_TYPE": "U", "NORAD_CAT_ID": 28890, "ELEMENT_SET_NO": 999, "REV_AT_EPOCH": 7414, "BSTAR": 5.4104664e-05, "MEAN_MOTION_DOT": 2.31e-06, "MEAN_MOTION_DDOT": 0}, "tle": {"line1": "1 28890U 05043A   25351.96569772  .00000231  00000+0  54105-4 0  9990", "line2": "2 28890  98.2647 119.4844 0015518 125.7262 234.5386 14.63370867 74143"}}, "geometry": {"type": "Point", "coordinates": [-62.14545593646301, -12.666234971028908]}}, {"type": "Feature", "properties": {"norad_id": 33320, "name": "HUANJING 1A (HJ-1A)", "group": "dmc", "lat": -71.64573623695178, "lon": 136.36650174827443, "alt_km": 633.6119541251619, "timestamp": "2025-12-18T04:58:34.247180+00:00", "meta": {"OBJECT_NAME": "HUANJING 1A (HJ-1A)", "OBJECT_ID": "2008-041A", "EPOCH": "2025-12-17T22:58:50.776896", "MEAN_MOTION": 14.83411615, "ECCENTRICITY": 0.00198447, "INCLINATION": 97.6537, "RA_OF_ASC_NODE": 340.0384, "ARG_OF_PERICENTER": 17.9738, "MEAN_ANOMALY": 342.2174, "EPHEMERIS_TYPE": 0, "CLASSIFICATION_TYPE": "U", "NORAD_CAT_ID": 33320, "ELEMENT_SET_NO": 999, "REV_AT_EPOCH": 93153, "BSTAR": 0.00014641567, "MEAN_MOTION_DOT": 1.154e-05, "MEAN_MOTION_DDOT": 0}, "tle": {"line1": "1 33320U 08041A   25351.95753214  .00001154  00000+0  14642-3 0  9996", "line2": "2 33320  97.6537 340.0384 0019844  17.9738 342.2174 14.83411615931531"}}, "geometry": {"type": "Point", "coordinates": [136.36650174827443, -71.64573623695178]}}, {"type": "Feature", "properties": {"norad_id": 33321, "name": "HUANJING 1B (HJ-1B)", "group": "dmc", "lat": 74.48538377571994, "lon": -167.12441956480785, "alt_km": 594.4639658273463, "timestamp": "2025-12-18T04:58:34.247194+00:00", "meta": {"OBJECT_NAME": "HUANJING 1B (HJ-1B)", "OBJECT_ID": "2008-041B", "EPOCH": "2025-12-17T23:39:20.024352", "MEAN_MOTION": 14.82833358, "ECCENTRICITY": 0.00381048, "INCLINATION": 97.6396, "RA_OF_ASC_NODE": 343.7487, "ARG_OF_PERICENTER": 59.0167, "MEAN_ANOMALY": 301.4782, "EPHEMERIS_TYPE": 0, "CLASSIFICATION_TYPE": "U", "NORAD_CAT_ID": 33321, "ELEMENT_SET_NO": 999, "REV_AT_EPOCH": 93155, "BSTAR": 7.3055974e-05, "MEAN_MOTION_DOT": 5.47e-06, "MEAN_MOTION_DDOT": 0}, "tle": {"line1": "1 33321U 08041B   25351.98564843  .00000547  00000+0  73056-4 0  9998", "line2": "2 33321  97.6396 343.7487 0038104  59.0167 301.4782 14.82833358931557"}}, "geometry": {"type": "Point", "coordinates": [-167.12441956480785, 74.48538377571994]}}, {"type": "Feature", "properties": {"norad_id": 33446, "name": "YAOGAN-4", "group": "dmc", "lat": 12.162215766409654, "lon": -79.46599517230568, "alt_km": 618.6500037861515, "timestamp": "2025-12-18T04:58:34.247206+00:00", "meta": {"OBJECT_NAME": "YAOGAN-4", "OBJECT_ID": "2008-061A", "EPOCH": "2025-12-17T19:12:11.057472", "MEAN_MOTION": 14.82697183, "ECCENTRICITY": 0.00132703, "INCLINATION": 97.9187, "RA_OF_ASC_NODE": 281.8498, "ARG_OF_PERICENTER": 305.6483, "MEAN_ANOMALY": 54.3494, "EPHEMERIS_TYPE": 0, "CLASSIFICATION_TYPE": "U", "NORAD_CAT_ID": 33446, "ELEMENT_SET_NO": 999, "REV_AT_EPOCH": 91878, "BSTAR": 0.00014708521, "MEAN_MOTION_DOT": 1.134e-05, "MEAN_MOTION_DDOT": 0}, "tle": {"line1": "1 33446U 08061A   25351.80012798  .00001134  00000+0  14709-3 0  9998", "line2": "2 33446  97.9187 281.8498 0013270 305.6483  54.3494 14.82697183918786"}}, "geometry": {"type": "Point", "coordinates": [-79.46599517230568, 12.162215766409654]}}, {"type": "Feature", "properties": {"norad_id": 35681, "name": "DEIMOS-1", "group": "dmc", "lat": -10.09070630521202, "lon": 153.93748862519845, "alt_km": 649.1859018817995, "timestamp": "2025-12-18T04:58:34.247217+00:00", "meta": {"OBJECT_NAME": "DEIMOS-1", "OBJECT_ID": "2009-041A", "EPOCH": "2025-12-17T22:30:34.617024", "MEAN_MOTION": 14.74960376, "ECCENTRICITY": 0.00026519, "INCLINATION": 97.7141, "RA_OF_ASC_NODE": 152.2985, "ARG_OF_PERICENTER": 70.7662, "MEAN_ANOMALY": 289.3835, "EPHEMERIS_TYPE": 0, "CLASSIFICATION_TYPE": "U", "NORAD_CAT_ID": 35681, "ELEMENT_SET_NO": 999, "REV_AT_EPOCH": 88016, "BSTAR": 7.7939637e-05, "MEAN_MOTION_DOT": 4.76e-06, "MEAN_MOTION_DDOT": 0}, "tle": {"line1": "1 35681U 09041A   25351.93790066  .00000476  00000+0  77940-4 0  9990", "line2": "2 35681  97.7141 152.2985 0002651  70.7662 289.3835 14.74960376880166"}}, "geometry": {"type": "Point", "coordinates": [153.93748862519845, -10.09070630521202]}}, {"type": "Feature", "properties": {"norad_id": 35683, "name": "UK-DMC 2", "group": "dmc", "lat": 17.98410361290507, "lon": 124.386147383628, "alt_km": 643.2853832254586, "timestamp": "2025-12-18T04:58:34.247228+00:00", "meta": {"OBJECT_NAME": "UK-DMC 2", "OBJECT_ID": "2009-041C", "EPOCH": "2025-12-17T22:23:04.163712", "MEAN_MOTION": 14.75631918, "ECCENTRICITY": 0.00014906, "INCLINATION": 97.8554, "RA_OF_ASC_NODE": 126.688, "ARG_OF_PERICENTER": 94.3103, "MEAN_ANOMALY": 265.8277, "EPHEMERIS_TYPE": 0, "CLASSIFICATION_TYPE": "U", "NORAD_CAT_ID": 35683, "ELEMENT_SET_NO": 999, "REV_AT_EPOCH": 87983, "BSTAR": 8.0671993e-05, "MEAN_MOTION_DOT": 5.02e-06, "MEAN_MOTION_DDOT": 0}, "tle": {"line1": "1 35683U 09041C   25351.93268708  .00000502  00000+0  80672-4 0  9991", "line2": "2 35683  97.8554 126.6880 0001490  94.3103 265.8277 14.75631918879837"}}, "geometry": {"type": "Point", "coordinates": [124.386147383628, 17.98410361290507]}}, {"type": "Feature", "properties": {"norad_id": 40715, "name": "DMC3-FM1", "group": "dmc", "lat": -77.52304283586096, "lon": 1.6839218972445524, "alt_km": 617.2255707624554, "timestamp": "2025-12-18T04:58:34.247239+00:00", "meta": {"OBJECT_NAME": "DMC3-FM1", "OBJECT_ID": "2015-032A", "EPOCH": "2025-12-17T22:57:29.890944", "MEAN_MOTION": 14.85449879, "ECCENTRICITY": 0.00043229, "INCLINATION": 97.6694, "RA_OF_ASC_NODE": 218.9588, "ARG_OF_PERICENTER": 301.5887, "MEAN_ANOMALY": 58.4906, "EPHEMERIS_TYPE": 0, "CLASSIFICATION_TYPE": "U", "NORAD_CAT_ID": 40715, "ELEMENT_SET_NO": 999, "REV_AT_EPOCH": 56300, "BSTAR": 7.0513041e-05, "MEAN_MOTION_DOT": 5.56e-06, "MEAN_MOTION_DDOT": 0}, "tle": {"line1": "1 40715U 15032A   25351.95659596  .00000556  00000+0  70513-4 0  9993", "line2": "2 40715  97.6694 218.9588 0004322 301.5887  58.4906 14.85449879563009"}}, "geometry": {"type": "Point", "coordinates": [1.6839218972445524, -77.52304283586096]}}, {"type": "Feature", "properties": {"norad_id": 40716, "name": "DMC3-FM2", "group": "dmc", "lat": 39.560036057834786, "lon": 47.044243854587094, "alt_km": 612.5444368058106, "timestamp": "2025-12-18T04:58:34.247250+00:00", "meta": {"OBJECT_NAME": "DMC3-FM2", "OBJECT_ID": "2015-032B", "EPOCH": "2025-12-17T21:52:53.128992", "MEAN_MOTION": 14.85449139, "ECCENTRICITY": 0.00049793, "INCLINATION": 97.6751, "RA_OF_ASC_NODE": 220.3631, "ARG_OF_PERICENTER": 306.6012, "MEAN_ANOMALY": 53.4745, "EPHEMERIS_TYPE": 0, "CLASSIFICATION_TYPE": "U", "NORAD_CAT_ID": 40716, "ELEMENT_SET_NO": 999, "REV_AT_EPOCH": 56299, "BSTAR": 4.0477488e-05, "MEAN_MOTION_DOT": 2.97e-06, "MEAN_MOTION_DDOT": 0}, "tle": {"line1": "1 40716U 15032B   25351.91172603  .00000297  00000+0  40477-4 0  9997", "line2": "2 40716  97.6751 220.3631 0004979 306.6012  53.4745 14.85449139562996"}}, "geometry": {"type": "Point", "coordinates": [47.044243854587094, 39.560036057834786]}}, {"type": "Feature", "properties": {"norad_id": 40717, "name": "DMC3-FM3", "group": "dmc", "lat": 23.850212908660755, "lon": -141.13571065600922, "alt_km": 611.017360897813, "timestamp": "2025-12-18T04:58:34.247260+00:00", "meta": {"OBJECT_NAME": "DMC3-FM3", "OBJECT_ID": "2015-032C", "EPOCH": "2025-12-17T22:24:05.156064", "MEAN_MOTION": 14.85437773, "ECCENTRICITY": 0.00042996, "INCLINATION": 97.6805, "RA_OF_ASC_NODE": 222.0204, "ARG_OF_PERICENTER": 308.3294, "MEAN_ANOMALY": 51.7535, "EPHEMERIS_TYPE": 0, "CLASSIFICATION_TYPE": "U", "NORAD_CAT_ID": 40717, "ELEMENT_SET_NO": 999, "REV_AT_EPOCH": 56300, "BSTAR": 8.643637e-05, "MEAN_MOTION_DOT": 6.93e-06, "MEAN_MOTION_DDOT": 0}, "tle": {"line1": "1 40717U 15032C   25351.93339301  .00000693  00000+0  86436-4 0  9995", "line2": "2 40717  97.6805 222.0204 0004299 308.3294  51.7535 14.85437773563000"}}, "geometry": {"type": "Point", "coordinates": [-141.13571065600922, 23.850212908660755]}}]}